{"type":"Feature","properties":{"MUN":"PERTH AMBOY CITY","COUNTY":"MIDDLESEX","MUN_LABEL":"Perth Amboy City","MUN_TYPE":"City","NAME":"Perth Amboy","GNIS_NAME":"City of Perth Amboy"},"geometry":{"type":"Polygon","coordinates":[[[-74.264539,40.5429338],[-74.2646611,40.5425736],[-74.2646755,40.5425013],[-74.2646958,40.5423992],[-74.2646963,40.5422656],[-74.2646678,40.5420465],[-74.2646002,40.5419017],[-74.2645374,40.5417939],[-74.2644599,40.5416972],[-74.2643532,40.5415931],[-74.2642416,40.5415001],[-74.2639697,40.5413362],[-74.2635765,40.541109],[-74.26346,40.5410345],[-74.263363,40.5409564],[-74.2632805,40.5408746],[-74.2631521,40.5407373],[-74.2631448,40.5407296],[-74.2629995,40.5405474],[-74.2628884,40.5403576],[-74.2628254,40.5402501],[-74.2626418,40.539886],[-74.2625064,40.539663],[-74.2623612,40.5394623],[-74.2622449,40.5393285],[-74.2621969,40.5392892],[-74.2621166,40.5392235],[-74.2620994,40.5392094],[-74.2615849,40.5388743],[-74.2613383,40.5387482],[-74.2611478,40.5386507],[-74.2606909,40.5385607],[-74.2605207,40.5385084],[-74.2603507,40.5384486],[-74.2600689,40.5383367],[-74.2598553,40.5382212],[-74.2596806,40.5381058],[-74.2595302,40.5379904],[-74.2594284,40.5378825],[-74.2591862,40.5375851],[-74.2590456,40.5374661],[-74.2589048,40.5373693],[-74.2588029,40.5373097],[-74.2586814,40.5372575],[-74.2585162,40.5372274],[-74.2583897,40.5372197],[-74.2582243,40.5372268],[-74.258088,40.5372451],[-74.2579224,40.5372855],[-74.2578104,40.5373336],[-74.2577178,40.5373816],[-74.2576446,40.5374483],[-74.2575908,40.5375224],[-74.257571,40.537604],[-74.257561,40.5376782],[-74.2575992,40.5378862],[-74.2577247,40.5381685],[-74.2578791,40.5385251],[-74.258014,40.5388891],[-74.2580427,40.5390154],[-74.258052,40.5391453],[-74.2580482,40.5393218],[-74.2580017,40.5395373],[-74.2579153,40.5397507],[-74.257812,40.5399007],[-74.2576773,40.5400312],[-74.257537,40.5401202],[-74.257299,40.5401941],[-74.2570361,40.5402455],[-74.2567538,40.5402746],[-74.2565787,40.5402668],[-74.2564328,40.5402517],[-74.2562529,40.5402253],[-74.2560439,40.5401766],[-74.2556481,40.5400324],[-74.2547615,40.5397092],[-74.2544492,40.539629],[-74.2543366,40.5390466],[-74.254081,40.5383587],[-74.2538634,40.5375052],[-74.2544921,40.5374154],[-74.2544554,40.5372277],[-74.2546597,40.5371048],[-74.2546476,40.5370928],[-74.25462,40.5370706],[-74.254608,40.5370531],[-74.2543869,40.5361555],[-74.2543098,40.5357992],[-74.2542456,40.5355506],[-74.2540269,40.5346931],[-74.2540234,40.5346792],[-74.2540233,40.5346787],[-74.2539312,40.5342408],[-74.2538976,40.5340812],[-74.2533537,40.5341523],[-74.2532883,40.5341609],[-74.2532598,40.5340219],[-74.2532279,40.5338525],[-74.2531139,40.5333673],[-74.2531056,40.5333323],[-74.2531068,40.5333139],[-74.2531117,40.5332974],[-74.2531323,40.5332882],[-74.2531455,40.5332873],[-74.2531587,40.5332956],[-74.2531683,40.5333131],[-74.2531791,40.5333435],[-74.2531874,40.5333758],[-74.2531946,40.5333923],[-74.2532042,40.5333951],[-74.2532127,40.5333933],[-74.2532211,40.533385],[-74.2532297,40.5333455],[-74.2532304,40.5333353],[-74.2532361,40.5332415],[-74.2532258,40.5331081],[-74.2532199,40.5330593],[-74.2532104,40.5330307],[-74.2531901,40.533008],[-74.2531816,40.5329984],[-74.2531647,40.5329846],[-74.2531647,40.5329763],[-74.2531696,40.5329727],[-74.25368,40.5329057],[-74.253697,40.5328845],[-74.2537092,40.5328339],[-74.2537119,40.5327649],[-74.2536913,40.5326109],[-74.2536813,40.5325357],[-74.2536367,40.5325412],[-74.2535561,40.5321582],[-74.2536657,40.5321479],[-74.2536707,40.5321474],[-74.2535455,40.5317671],[-74.253436,40.5313656],[-74.2534121,40.5313039],[-74.2533633,40.5312406],[-74.253348,40.5312207],[-74.2533105,40.531079],[-74.2533103,40.5310785],[-74.2532585,40.5309255],[-74.2532308,40.5308321],[-74.2532057,40.5307485],[-74.2531924,40.5306752],[-74.2531766,40.5305321],[-74.2531753,40.5304161],[-74.2531852,40.5301597],[-74.2531976,40.5300071],[-74.2531959,40.5299649],[-74.2531899,40.5299303],[-74.2531879,40.5299186],[-74.2531718,40.5298806],[-74.2531574,40.5298591],[-74.2531402,40.5298446],[-74.2531221,40.5298356],[-74.2531067,40.5298341],[-74.2530615,40.5298341],[-74.2530289,40.5298305],[-74.2530273,40.5298298],[-74.2529991,40.5298173],[-74.2529765,40.5297986],[-74.2529485,40.5297716],[-74.2528989,40.5297135],[-74.2528944,40.5297066],[-74.2528441,40.5296104],[-74.2528324,40.5295731],[-74.2528325,40.5295399],[-74.252839,40.5295116],[-74.2528527,40.5294895],[-74.2528836,40.5294592],[-74.2529434,40.5294117],[-74.2529615,40.5293974],[-74.2529644,40.5293951],[-74.252978,40.5293792],[-74.2529817,40.5293654],[-74.2529817,40.5293523],[-74.2529745,40.5293392],[-74.252952,40.5293177],[-74.2528915,40.5292664],[-74.2528212,40.5291882],[-74.2527704,40.5291195],[-74.2527608,40.5291065],[-74.2527185,40.5290443],[-74.2526708,40.5289571],[-74.2526564,40.5289315],[-74.2526366,40.5288934],[-74.2525756,40.5287468],[-74.2525666,40.5287171],[-74.252564,40.5286984],[-74.2525714,40.5286549],[-74.2525742,40.5286238],[-74.2525734,40.5285976],[-74.2525699,40.5285748],[-74.2525564,40.5285533],[-74.2525401,40.5285402],[-74.2525166,40.5285291],[-74.2524967,40.52852],[-74.2524805,40.5285089],[-74.2524633,40.5284896],[-74.2524553,40.5284695],[-74.2524544,40.5284474],[-74.2524581,40.5284274],[-74.2524646,40.5283997],[-74.2524665,40.5283749],[-74.252462,40.5283486],[-74.2524494,40.5283278],[-74.2524107,40.5282828],[-74.2523295,40.5282004],[-74.2523096,40.5281845],[-74.2522933,40.5281783],[-74.2522734,40.5281782],[-74.2522489,40.5281802],[-74.2522263,40.5281788],[-74.2522046,40.5281732],[-74.2521802,40.5281614],[-74.2521504,40.5281386],[-74.2521152,40.5281012],[-74.25209,40.528059],[-74.2520703,40.5280044],[-74.2520641,40.5279739],[-74.2520659,40.5279567],[-74.2520887,40.5279166],[-74.2520988,40.5278946],[-74.2520988,40.5278794],[-74.2520935,40.5278579],[-74.25208,40.5278468],[-74.2520789,40.5278464],[-74.2520761,40.5278452],[-74.2520374,40.5278288],[-74.2520266,40.5278212],[-74.2520248,40.5278115],[-74.2520294,40.5278004],[-74.2520358,40.5277832],[-74.2520377,40.5277569],[-74.2520324,40.5277314],[-74.252018,40.5276995],[-74.2519784,40.5276463],[-74.2519739,40.5276276],[-74.2519749,40.5276082],[-74.2519831,40.5275951],[-74.2520294,40.5275641],[-74.2520503,40.5275428],[-74.2520512,40.5275331],[-74.2520458,40.5275255],[-74.2520322,40.5275199],[-74.2520178,40.5275206],[-74.2519924,40.5275274],[-74.2519824,40.5275295],[-74.2519707,40.527526],[-74.2519571,40.5275142],[-74.2519526,40.5275011],[-74.2519536,40.5274852],[-74.2519618,40.52747],[-74.2519754,40.5274638],[-74.251999,40.5274632],[-74.2520189,40.5274625],[-74.2520416,40.5274522],[-74.2520543,40.5274419],[-74.2520634,40.5274239],[-74.2520644,40.5273977],[-74.2520618,40.5273742],[-74.2520607,40.5273726],[-74.2520602,40.5273719],[-74.2520491,40.5273555],[-74.2520275,40.5273389],[-74.2519336,40.527253],[-74.2519174,40.5272336],[-74.2519129,40.5272232],[-74.2519139,40.5272101],[-74.2519175,40.5272039],[-74.2519311,40.5271984],[-74.2519402,40.5271908],[-74.2519439,40.5271805],[-74.2519439,40.5271694],[-74.2519385,40.5271618],[-74.2519286,40.5271549],[-74.2519141,40.5271445],[-74.2519069,40.5271362],[-74.2518934,40.5271044],[-74.2518514,40.5269681],[-74.2518461,40.5269274],[-74.2518498,40.5268949],[-74.2518562,40.5268776],[-74.2518653,40.5268666],[-74.2518807,40.526859],[-74.2519034,40.5268584],[-74.2519269,40.5268619],[-74.251945,40.5268689],[-74.2519549,40.5268744],[-74.2519829,40.526909],[-74.2519928,40.5269215],[-74.2520036,40.526927],[-74.2520236,40.5269278],[-74.2520362,40.5269236],[-74.2520444,40.5269161],[-74.2520673,40.5268608],[-74.2520801,40.5268325],[-74.2520847,40.5268125],[-74.2520847,40.5267897],[-74.252083,40.5267662],[-74.252084,40.5267524],[-74.2520858,40.5267386],[-74.2520976,40.5267262],[-74.2521104,40.5267165],[-74.2521312,40.5267096],[-74.2521503,40.5267055],[-74.2521629,40.5267007],[-74.2521648,40.5266987],[-74.2521748,40.5266883],[-74.2521757,40.5266745],[-74.2521731,40.5266517],[-74.2521669,40.5266234],[-74.2521507,40.526595],[-74.2521272,40.5265756],[-74.2521028,40.5265624],[-74.2520775,40.5265561],[-74.252053,40.5265561],[-74.2520303,40.5265622],[-74.2520059,40.5265719],[-74.2519805,40.5265746],[-74.2519588,40.5265745],[-74.2519398,40.5265717],[-74.2519144,40.5265634],[-74.2518801,40.5265502],[-74.251871,40.5265483],[-74.2518593,40.526546],[-74.2517543,40.5265368],[-74.2517208,40.5265326],[-74.2516783,40.5265214],[-74.2516168,40.526493],[-74.2515933,40.5264798],[-74.2515807,40.5264673],[-74.2515735,40.5264493],[-74.2515745,40.5264314],[-74.2515909,40.5264058],[-74.2516099,40.5263921],[-74.251638,40.5263811],[-74.251667,40.5263784],[-74.2516824,40.5263701],[-74.2516916,40.5263542],[-74.2516916,40.5263397],[-74.2516799,40.5263307],[-74.2516636,40.5263245],[-74.2516328,40.5263189],[-74.2516148,40.5263071],[-74.251604,40.5262898],[-74.2516031,40.526276],[-74.2516059,40.5262594],[-74.2516059,40.5262407],[-74.2516033,40.526229],[-74.2515952,40.5262193],[-74.2515762,40.5261999],[-74.2515267,40.52613],[-74.2514241,40.5259419],[-74.2513451,40.5257807],[-74.2513317,40.5257275],[-74.2513336,40.5256888],[-74.25135,40.5256653],[-74.251379,40.5256502],[-74.2514081,40.525635],[-74.2514281,40.5256157],[-74.2514391,40.5255688],[-74.2514395,40.5254624],[-74.2514253,40.5253739],[-74.2513948,40.5253061],[-74.2512224,40.5249105],[-74.2512044,40.5248898],[-74.2511827,40.5248842],[-74.2511519,40.5248841],[-74.2509997,40.5248976],[-74.2509907,40.5248969],[-74.2509834,40.5248941],[-74.2509807,40.5248872],[-74.2509808,40.5248782],[-74.2509871,40.5248679],[-74.2510071,40.5248582],[-74.2511885,40.5247812],[-74.2512012,40.5247675],[-74.2512067,40.5247516],[-74.2512066,40.5247503],[-74.2512041,40.5247274],[-74.2511789,40.5246872],[-74.2510453,40.5245613],[-74.2509695,40.5244899],[-74.2509578,40.5244698],[-74.2509588,40.5244498],[-74.2509679,40.524438],[-74.250987,40.5244263],[-74.2510178,40.5244043],[-74.2510687,40.5243512],[-74.2511133,40.5243043],[-74.2511169,40.5242926],[-74.2511161,40.5242857],[-74.2511016,40.5242843],[-74.2510826,40.5242891],[-74.2510064,40.5243124],[-74.2509131,40.5243315],[-74.2508551,40.5243383],[-74.2507763,40.5243395],[-74.2507734,40.5243394],[-74.2507048,40.5243373],[-74.2506677,40.5243331],[-74.2506116,40.5243171],[-74.2505556,40.5242955],[-74.2505031,40.5242664],[-74.2504661,40.5242352],[-74.2504355,40.5241992],[-74.2504229,40.5241743],[-74.2504166,40.5241536],[-74.2504152,40.5241423],[-74.250414,40.5241335],[-74.2504132,40.524108],[-74.2504051,40.5240824],[-74.250388,40.5240582],[-74.2503618,40.524036],[-74.2503202,40.5240241],[-74.2502931,40.5240137],[-74.2502796,40.5240047],[-74.2502597,40.523986],[-74.2502102,40.5239016],[-74.2501797,40.523838],[-74.2501493,40.5237246],[-74.2501496,40.5236332],[-74.2501755,40.52341],[-74.2501879,40.5232923],[-74.2501856,40.5232764],[-74.2501764,40.5232631],[-74.250166,40.5232569],[-74.2501325,40.5232339],[-74.2501087,40.5232137],[-74.2501053,40.5232071],[-74.2500996,40.5231961],[-74.2500973,40.5231732],[-74.2501009,40.5231379],[-74.2501149,40.5231132],[-74.2501439,40.5230842],[-74.2501786,40.523064],[-74.2502071,40.5230514],[-74.2502342,40.5230394],[-74.2502886,40.5230087],[-74.2503367,40.5229722],[-74.2503709,40.5229379],[-74.2504068,40.5228913],[-74.2504231,40.5228587],[-74.2504261,40.5228511],[-74.2504336,40.5228314],[-74.2504499,40.5228023],[-74.250479,40.5227645],[-74.250559,40.52268],[-74.2505822,40.5226474],[-74.2505996,40.5226131],[-74.2506102,40.5225805],[-74.2506264,40.5225532],[-74.2506462,40.5225277],[-74.2506717,40.5225022],[-74.250696,40.5224811],[-74.2507169,40.5224591],[-74.2507251,40.5224432],[-74.2507367,40.5224133],[-74.2507414,40.5223992],[-74.2507495,40.5223877],[-74.2507669,40.5223754],[-74.2507901,40.5223605],[-74.2508086,40.5223447],[-74.2508214,40.5223262],[-74.2508273,40.5222945],[-74.250832,40.5222654],[-74.2508436,40.5222407],[-74.2508691,40.522217],[-74.2508888,40.5222091],[-74.2509108,40.5222047],[-74.2509306,40.5222075],[-74.2509801,40.5222146],[-74.2510244,40.5220825],[-74.2509818,40.5220749],[-74.2509509,40.5220693],[-74.2510371,40.5219295],[-74.2510523,40.5218911],[-74.2510575,40.5218557],[-74.2510577,40.5218034],[-74.2510461,40.5216718],[-74.2509655,40.5216586],[-74.2510084,40.5215056],[-74.2510247,40.521478],[-74.2510408,40.5214642],[-74.251059,40.5214565],[-74.2510721,40.5214565],[-74.2511074,40.5214597],[-74.2511396,40.5214597],[-74.2511739,40.5214583],[-74.2512011,40.5214553],[-74.2512375,40.5214415],[-74.251296,40.5214109],[-74.2514253,40.5213373],[-74.2515102,40.5212806],[-74.251674,40.5211425],[-74.2518054,40.5210412],[-74.2519205,40.5209892],[-74.252092,40.520928],[-74.2522731,40.5208836],[-74.25231,40.5208746],[-74.2523449,40.5208714],[-74.252441,40.5208626],[-74.2525559,40.5208659],[-74.2528138,40.5209003],[-74.2528844,40.520902],[-74.252961,40.5208991],[-74.2530213,40.520888],[-74.2530518,40.5208824],[-74.2531264,40.520881],[-74.253213,40.5208842],[-74.2533056,40.520903],[-74.2533359,40.5209091],[-74.2535333,40.5209495],[-74.2536703,40.5209667],[-74.253759,40.5209716],[-74.253886,40.5209703],[-74.2539131,40.520968],[-74.2539908,40.5209613],[-74.2541057,40.5209615],[-74.2542367,40.5209741],[-74.2542867,40.520986],[-74.2543938,40.5210114],[-74.2545065,40.5210577],[-74.2546031,40.5211133],[-74.2546393,40.5211273],[-74.2546736,40.5211335],[-74.2547159,40.521132],[-74.2547422,40.5211198],[-74.2547644,40.5210921],[-74.2547857,40.521042],[-74.254793,40.5209953],[-74.2547912,40.5209588],[-74.2547861,40.5209234],[-74.2547336,40.5207198],[-74.2547287,40.5206976],[-74.2547156,40.5206705],[-74.2547119,40.520667],[-74.2546955,40.5206513],[-74.2546653,40.5206374],[-74.2546452,40.5206288],[-74.254625,40.5206219],[-74.254613,40.5206119],[-74.254607,40.520598],[-74.254607,40.5205865],[-74.2546071,40.5205757],[-74.2546132,40.5205657],[-74.2546243,40.520558],[-74.2546676,40.5205504],[-74.254709,40.5205467],[-74.2547413,40.5205429],[-74.2547705,40.5205307],[-74.2548049,40.5205046],[-74.2548494,40.5204478],[-74.2550914,40.5198652],[-74.2553678,40.519812],[-74.2553943,40.5197321],[-74.2557065,40.5197866],[-74.2557107,40.5197481],[-74.2557393,40.519662],[-74.2557757,40.5196144],[-74.2558384,40.5195607],[-74.2559233,40.519504],[-74.2560323,40.519458],[-74.2561231,40.5194351],[-74.2561453,40.519426],[-74.2561676,40.5193937],[-74.2562205,40.5192385],[-74.2562955,40.5189519],[-74.2563166,40.518871],[-74.2563353,40.5187172],[-74.2563255,40.5186449],[-74.2563075,40.5186141],[-74.2562833,40.5186017],[-74.2562292,40.5185857],[-74.2562129,40.5185646],[-74.256207,40.51854],[-74.2562222,40.5182155],[-74.2562328,40.5180847],[-74.2562292,40.5179586],[-74.2562236,40.5178355],[-74.2562218,40.5177832],[-74.2562281,40.5177032],[-74.2563198,40.517425],[-74.2564316,40.5171652],[-74.2564904,40.5170746],[-74.256543,40.5170208],[-74.2565694,40.5169932],[-74.2565795,40.516964],[-74.2565696,40.5169194],[-74.2565698,40.5168794],[-74.2565759,40.516844],[-74.2565839,40.5168266],[-74.2565962,40.5167994],[-74.2566165,40.5167718],[-74.2566751,40.5167304],[-74.2567458,40.5166905],[-74.2568629,40.5166323],[-74.2572193,40.5164877],[-74.2575755,40.5163431],[-74.2576805,40.5162925],[-74.2577448,40.5162437],[-74.2577533,40.5162373],[-74.2577856,40.516202],[-74.2578101,40.5161374],[-74.2578103,40.516079],[-74.2578085,40.5160174],[-74.2578228,40.5159544],[-74.2581602,40.5152275],[-74.2582108,40.5151183],[-74.2582331,40.5150861],[-74.2582594,40.5150538],[-74.2583019,40.5150155],[-74.2583424,40.5149709],[-74.258389,40.5148987],[-74.2585427,40.5145842],[-74.2585941,40.5144792],[-74.2585477,40.5144683],[-74.2587568,40.5140811],[-74.2588867,40.5138183],[-74.2589204,40.5137625],[-74.2589943,40.51364],[-74.2590165,40.5136032],[-74.2591359,40.5134512],[-74.2590232,40.5134171],[-74.2591876,40.5131005],[-74.2595158,40.5131997],[-74.25955,40.5132044],[-74.2595762,40.5131998],[-74.2596146,40.5131768],[-74.2596994,40.5131262],[-74.2597882,40.5130926],[-74.2598145,40.513088],[-74.2598729,40.5130958],[-74.2601346,40.5131686],[-74.2601531,40.5131731],[-74.2601669,40.5131764],[-74.260181,40.5131764],[-74.2601951,40.5131734],[-74.2602032,40.513158],[-74.2602033,40.5131426],[-74.2601933,40.5131288],[-74.2601817,40.5131125],[-74.2601812,40.5131118],[-74.2601732,40.5130887],[-74.2601713,40.5130595],[-74.2601982,40.5128827],[-74.2601905,40.512755],[-74.2601906,40.5127257],[-74.2602029,40.512695],[-74.2602211,40.5126689],[-74.2602484,40.5123613],[-74.2602486,40.5123607],[-74.2602587,40.5123268],[-74.2602668,40.5122998],[-74.2602962,40.5122501],[-74.2603032,40.5122383],[-74.2603506,40.5121812],[-74.2602844,40.512161],[-74.2608461,40.510918],[-74.2610509,40.5105661],[-74.2609743,40.510544],[-74.2597985,40.5102036],[-74.2598,40.5102007],[-74.2602227,40.509383],[-74.2603757,40.5094325],[-74.2601139,40.5099442],[-74.260875,40.5101612],[-74.2609453,40.5100249],[-74.2611713,40.5095865],[-74.2611166,40.5095642],[-74.2608895,40.509472],[-74.2609866,40.5093676],[-74.2610858,40.5092525],[-74.2611223,40.5092041],[-74.2611791,40.5090857],[-74.2612313,40.5089591],[-74.2612371,40.5089451],[-74.2612758,40.5088183],[-74.2612759,40.5087914],[-74.2612669,40.5087721],[-74.2612448,40.5087574],[-74.2612015,40.5087435],[-74.2611834,40.5087304],[-74.2611764,40.5087188],[-74.2611704,40.5086996],[-74.2611616,40.5086381],[-74.2611602,40.5086269],[-74.2611557,40.5085888],[-74.2611477,40.5085626],[-74.2611286,40.5085457],[-74.2610006,40.5085055],[-74.2609484,40.5084892],[-74.2609435,40.5084776],[-74.2611243,40.5080688],[-74.2612298,40.5078536],[-74.2611966,40.507842],[-74.2612606,40.5077037],[-74.2612968,40.507713],[-74.2614195,40.5075241],[-74.2614692,40.5074342],[-74.2614935,40.5073719],[-74.2615681,40.5070875],[-74.2615783,40.5070667],[-74.2616106,40.5070445],[-74.2616489,40.5070307],[-74.2616903,40.5070231],[-74.2617336,40.5070186],[-74.2618344,40.5070234],[-74.2618782,40.5069037],[-74.2618798,40.5068992],[-74.2619112,40.5068132],[-74.2618957,40.5067939],[-74.2618816,40.5067674],[-74.2618782,40.5067462],[-74.2618844,40.5067093],[-74.261959,40.5065618],[-74.2620408,40.5063823],[-74.2620493,40.5063635],[-74.2621541,40.5060914],[-74.2622614,40.5061112],[-74.2623142,40.506121],[-74.2623293,40.506091],[-74.2623528,40.5060442],[-74.2623925,40.505953],[-74.2624361,40.5058528],[-74.2625013,40.5056522],[-74.2625155,40.5056026],[-74.2625982,40.505314],[-74.2627451,40.5048158],[-74.2628379,40.5044876],[-74.2629194,40.5042462],[-74.2629205,40.5042423],[-74.2629796,40.5040248],[-74.2627006,40.5039447],[-74.2626504,40.5039303],[-74.2627446,40.5037376],[-74.2627649,40.5037005],[-74.2628304,40.5036281],[-74.2629817,40.5034609],[-74.2631355,40.5032728],[-74.2634394,40.502893],[-74.2636408,40.5026362],[-74.2636515,40.5026308],[-74.2637214,40.5026581],[-74.2639352,40.502269],[-74.2643179,40.5023799],[-74.2643856,40.5023995],[-74.2644059,40.5023751],[-74.2644254,40.5023559],[-74.2644595,40.5023226],[-74.264613,40.5021889],[-74.2647102,40.5021194],[-74.2647851,40.5020659],[-74.2648164,40.5020435],[-74.2649211,40.5019613],[-74.2649422,40.5019422],[-74.2649842,40.5019043],[-74.2650319,40.5018546],[-74.2651212,40.5017443],[-74.2652405,40.5015643],[-74.2653085,40.5014702],[-74.2655278,40.5011853],[-74.2657257,40.5009339],[-74.2658425,40.5007793],[-74.2658961,40.5007142],[-74.265958,40.5006554],[-74.265988,40.5006312],[-74.2660556,40.5005768],[-74.2661531,40.5005172],[-74.2662066,40.5004829],[-74.2662268,40.5004676],[-74.2662411,40.5004431],[-74.2662436,40.5004169],[-74.2662413,40.5003924],[-74.2662307,40.5003643],[-74.2662154,40.5003471],[-74.2661787,40.5003198],[-74.2661598,40.5002971],[-74.2661433,40.5002545],[-74.2661422,40.5002265],[-74.2661494,40.5002029],[-74.266178,40.5001677],[-74.2663744,40.5000115],[-74.2664992,40.4999128],[-74.26617,40.499798],[-74.2679439,40.4936569],[-74.2703476,40.4942993],[-74.2718673,40.4947747],[-74.2719929,40.4947965],[-74.2743926,40.4952128],[-74.2804655,40.4959567],[-74.2832072,40.4962925],[-74.2850621,40.4967685],[-74.2863494,40.4974007],[-74.2873783,40.4981899],[-74.2876504,40.4985112],[-74.2877318,40.4986073],[-74.2880462,40.4989785],[-74.2882384,40.4993332],[-74.2883143,40.4997861],[-74.2883174,40.5000122],[-74.2883208,40.5006477],[-74.2881909,40.5012021],[-74.2879215,40.5019032],[-74.2871464,40.5033679],[-74.287105,40.5036073],[-74.2871028,40.5039086],[-74.2871136,40.5042001],[-74.2871653,40.504496],[-74.2873408,40.5048729],[-74.2875476,40.5051982],[-74.2878055,40.5054808],[-74.2878834,40.5055662],[-74.2882722,40.5058685],[-74.2894669,40.5066702],[-74.2911365,40.5076812],[-74.2913066,40.5077841],[-74.2914491,40.5078705],[-74.2915702,40.5079438],[-74.2916802,40.5080105],[-74.2904736,40.519428],[-74.2904622,40.5195341],[-74.2904463,40.5196772],[-74.2904319,40.5197819],[-74.2904124,40.5199231],[-74.2903584,40.5202633],[-74.2903156,40.5205193],[-74.2902706,40.5208173],[-74.2902388,40.5210745],[-74.2902275,40.521166],[-74.290216,40.5212858],[-74.2902001,40.5214506],[-74.2901683,40.5217487],[-74.2901593,40.5218113],[-74.2901309,40.5220085],[-74.2901164,40.5221091],[-74.2900621,40.5225318],[-74.2900452,40.5226726],[-74.2895299,40.5252122],[-74.2896061,40.5257716],[-74.2896277,40.5258944],[-74.2896349,40.5259447],[-74.2896579,40.5260867],[-74.2897228,40.5264877],[-74.2897632,40.5267334],[-74.2897695,40.5267717],[-74.289782,40.5268478],[-74.2898854,40.5274497],[-74.2899024,40.5275485],[-74.289948,40.5278465],[-74.2899848,40.5280439],[-74.2899968,40.5281295],[-74.2900178,40.5282784],[-74.2900583,40.5285244],[-74.2900953,40.5286789],[-74.2901361,40.5288076],[-74.2901844,40.5289307],[-74.2902739,40.5290853],[-74.2903895,40.5292657],[-74.2905908,40.5296091],[-74.2906996,40.5297837],[-74.2907586,40.5298782],[-74.290822,40.5299956],[-74.2908592,40.5300814],[-74.2908665,40.5301415],[-74.2908699,40.5302359],[-74.2908583,40.5303645],[-74.2908277,40.5305646],[-74.2907745,40.5307847],[-74.2905741,40.5315679],[-74.2903962,40.5319221],[-74.2903427,40.532268],[-74.290305,40.5325286],[-74.2902852,40.5326654],[-74.2902321,40.5328626],[-74.2901867,40.5329997],[-74.2901413,40.5331341],[-74.2900862,40.5332446],[-74.2900244,40.5333683],[-74.2899189,40.5335369],[-74.289821,40.5337025],[-74.2897418,40.5338597],[-74.2897077,40.5339854],[-74.2896923,40.5340969],[-74.2896844,40.5342284],[-74.2897019,40.5343511],[-74.2897174,40.5344601],[-74.2897769,40.5346146],[-74.2898626,40.5347749],[-74.2899333,40.5349323],[-74.2899891,40.5350725],[-74.2900225,40.5351927],[-74.2900333,40.5353214],[-74.2900141,40.5354672],[-74.2899762,40.5356044],[-74.2899309,40.5357244],[-74.2898517,40.5358644],[-74.2897689,40.5359671],[-74.2896599,40.5360585],[-74.2895194,40.5361652],[-74.2895097,40.5361726],[-74.2894656,40.5361977],[-74.2894196,40.5362239],[-74.2892957,40.5362837],[-74.2891056,40.536358],[-74.2890481,40.5363805],[-74.2888829,40.5364545],[-74.288714,40.5365314],[-74.2884324,40.5366939],[-74.2881733,40.5368507],[-74.2880834,40.5369076],[-74.2878353,40.5370646],[-74.2874786,40.5372783],[-74.2872158,40.5374237],[-74.2869455,40.5375662],[-74.2867502,40.5376716],[-74.286525,40.5377941],[-74.2864709,40.5378207],[-74.2862584,40.5379252],[-74.2859994,40.5380591],[-74.2857028,40.5382044],[-74.285425,40.5383497],[-74.2851547,40.5384865],[-74.2848919,40.5386175],[-74.284693,40.5387086],[-74.2845991,40.5387542],[-74.2844453,40.5387997],[-74.2843291,40.5388195],[-74.2841529,40.5388363],[-74.284003,40.5388275],[-74.2838343,40.5388128],[-74.2836957,40.5387926],[-74.2833811,40.5387434],[-74.2831814,40.538714],[-74.2829877,40.5386854],[-74.2827479,40.5386735],[-74.2825043,40.5386616],[-74.2822681,40.5386669],[-74.2820469,40.5386894],[-74.2817731,40.5387575],[-74.2815455,40.5388394],[-74.2813228,40.5389196],[-74.2805235,40.5392098],[-74.2800132,40.5393975],[-74.2794803,40.5395938],[-74.2791013,40.5397304],[-74.2789437,40.5397844],[-74.2788536,40.5398157],[-74.2786998,40.5398497],[-74.278471,40.5399007],[-74.2780997,40.5399772],[-74.2779609,40.5400027],[-74.2778147,40.5400339],[-74.2776871,40.5400651],[-74.2775783,40.5400906],[-74.2774909,40.5401094],[-74.277264,40.5401804],[-74.2770336,40.5402488],[-74.2769344,40.5402798],[-74.2762667,40.540525],[-74.2756799,40.5407425],[-74.2743535,40.5414156],[-74.2742536,40.5414253],[-74.2741671,40.5414076],[-74.2740369,40.5413024],[-74.2740191,40.541288],[-74.2739749,40.5413163],[-74.2739749,40.5413172],[-74.2737678,40.5414115],[-74.2737446,40.5414235],[-74.2737214,40.541443],[-74.2736775,40.5414837],[-74.2736616,40.5415096],[-74.2736555,40.5415319],[-74.2736528,40.5416006],[-74.2736454,40.5416488],[-74.2736307,40.5416748],[-74.2736038,40.5417044],[-74.2735806,40.5417173],[-74.27356,40.5417247],[-74.2735271,40.541733],[-74.2734967,40.5417394],[-74.2734663,40.5417385],[-74.2734359,40.5417356],[-74.2733702,40.5417243],[-74.2733119,40.5417112],[-74.27329,40.5417075],[-74.2732657,40.5417093],[-74.2732474,40.5417093],[-74.2732267,40.5417148],[-74.2732109,40.5417203],[-74.2731975,40.5417305],[-74.2731901,40.5417463],[-74.2731753,40.5418149],[-74.273163,40.5418501],[-74.2731458,40.5418965],[-74.2731263,40.5419299],[-74.2731031,40.5419539],[-74.2730763,40.5419743],[-74.2730531,40.5419854],[-74.2730044,40.5420038],[-74.2729715,40.5420084],[-74.2729533,40.5420093],[-74.2729046,40.5420055],[-74.2728512,40.5419961],[-74.2728268,40.5419942],[-74.2727976,40.541996],[-74.2727709,40.5419987],[-74.2727441,40.5420052],[-74.2727185,40.5420144],[-74.2726954,40.5420255],[-74.2726345,40.5420625],[-74.2725954,40.5420884],[-74.2725516,40.5421106],[-74.2725199,40.5421207],[-74.2724858,40.542129],[-74.2724079,40.5421437],[-74.2722716,40.5421732],[-74.2720914,40.5422247],[-74.2719478,40.5422746],[-74.2717699,40.5423503],[-74.2716554,40.542402],[-74.271614,40.5424168],[-74.2715628,40.5424316],[-74.2714947,40.5424426],[-74.2714777,40.5424444],[-74.2714217,40.5424498],[-74.2713791,40.5424534],[-74.2713024,40.54247],[-74.271184,40.5425077],[-74.2711822,40.5425083],[-74.2711713,40.5425105],[-74.271093,40.5425253],[-74.2710485,40.5425339],[-74.2710212,40.5425393],[-74.2709421,40.5425547],[-74.2708841,40.5425511],[-74.2708831,40.5425511],[-74.2708214,40.542599],[-74.2708096,40.5426033],[-74.2707976,40.5426074],[-74.2707855,40.5426111],[-74.2707732,40.5426145],[-74.2707652,40.5426166],[-74.2707608,40.5426177],[-74.2707483,40.5426205],[-74.2707356,40.542623],[-74.2707229,40.5426253],[-74.27071,40.5426272],[-74.270668,40.5426334],[-74.2706263,40.5426408],[-74.270585,40.5426493],[-74.2705765,40.5426511],[-74.2705679,40.5426526],[-74.2705592,40.5426539],[-74.2705505,40.542655],[-74.2705418,40.5426558],[-74.270533,40.5426564],[-74.2705242,40.5426568],[-74.2705153,40.5426569],[-74.2705065,40.5426568],[-74.2704977,40.5426565],[-74.2704889,40.5426559],[-74.2704801,40.5426551],[-74.2704714,40.5426541],[-74.2704627,40.5426528],[-74.2704541,40.5426514],[-74.2704456,40.5426497],[-74.2704371,40.5426477],[-74.2704288,40.5426456],[-74.2704205,40.5426432],[-74.2704124,40.5426406],[-74.2704098,40.5426397],[-74.2704073,40.5426387],[-74.2704049,40.5426377],[-74.2704025,40.5426366],[-74.2704001,40.5426355],[-74.2703978,40.5426343],[-74.2703956,40.542633],[-74.2703934,40.5426317],[-74.2703913,40.5426303],[-74.2703892,40.5426289],[-74.2703872,40.5426274],[-74.2703853,40.5426259],[-74.2703834,40.5426243],[-74.2703817,40.5426227],[-74.2703799,40.542621],[-74.2703783,40.5426193],[-74.2703767,40.5426175],[-74.2703753,40.5426157],[-74.2703739,40.5426139],[-74.2703501,40.5425825],[-74.2703251,40.5425516],[-74.2702989,40.5425213],[-74.2702956,40.5425178],[-74.2702921,40.5425143],[-74.2702885,40.5425109],[-74.2702848,40.5425076],[-74.2702809,40.5425045],[-74.2702769,40.5425014],[-74.2702727,40.5424984],[-74.2702685,40.5424955],[-74.270264,40.5424928],[-74.2702595,40.5424901],[-74.2702549,40.5424876],[-74.2702437,40.542482],[-74.2702323,40.5424766],[-74.2702207,40.5424716],[-74.2702088,40.5424669],[-74.2701967,40.5424625],[-74.2701845,40.5424584],[-74.270172,40.5424546],[-74.2701594,40.5424512],[-74.2701467,40.5424481],[-74.2701338,40.5424454],[-74.2701298,40.5424446],[-74.2701259,40.542444],[-74.2701219,40.5424435],[-74.2701179,40.5424431],[-74.2701138,40.5424428],[-74.2701098,40.5424426],[-74.2701057,40.5424425],[-74.2701017,40.5424425],[-74.2700976,40.5424426],[-74.2700936,40.5424428],[-74.2700896,40.5424431],[-74.2700855,40.5424436],[-74.2700816,40.5424441],[-74.2700776,40.5424448],[-74.2700737,40.5424455],[-74.2700698,40.5424464],[-74.2700659,40.5424473],[-74.2700621,40.5424484],[-74.2700583,40.5424495],[-74.2700546,40.5424508],[-74.270051,40.5424521],[-74.2700474,40.5424536],[-74.2700403,40.5424567],[-74.2700334,40.54246],[-74.2700266,40.5424634],[-74.2700199,40.542467],[-74.2700135,40.5424708],[-74.2700071,40.5424748],[-74.270001,40.5424789],[-74.2699951,40.5424831],[-74.2699893,40.5424875],[-74.2699837,40.5424921],[-74.2699784,40.5424968],[-74.2699366,40.5425361],[-74.2698966,40.5425764],[-74.2698586,40.5426179],[-74.2698225,40.5426603],[-74.2697884,40.5427037],[-74.2697856,40.5427073],[-74.2697826,40.5427108],[-74.2697795,40.5427143],[-74.2697762,40.5427176],[-74.2697728,40.5427209],[-74.2697692,40.5427241],[-74.2697655,40.5427272],[-74.2697616,40.5427302],[-74.2697576,40.5427331],[-74.2697535,40.5427358],[-74.2697493,40.5427385],[-74.2697449,40.5427411],[-74.2697404,40.5427435],[-74.2697359,40.5427459],[-74.2697312,40.5427481],[-74.2697264,40.5427502],[-74.2697216,40.5427521],[-74.2697166,40.542754],[-74.2697091,40.5427565],[-74.2697016,40.5427588],[-74.2696939,40.542761],[-74.2696861,40.5427629],[-74.2696782,40.5427647],[-74.2696703,40.5427662],[-74.2696623,40.5427675],[-74.2696542,40.5427686],[-74.2696461,40.5427695],[-74.269638,40.5427702],[-74.2696298,40.5427706],[-74.2696217,40.5427709],[-74.2696135,40.5427709],[-74.2696053,40.5427707],[-74.2695971,40.5427704],[-74.269589,40.5427697],[-74.2695809,40.5427689],[-74.2695728,40.5427679],[-74.2695648,40.5427666],[-74.2695568,40.5427652],[-74.2695489,40.5427635],[-74.2695411,40.5427617],[-74.2695334,40.5427596],[-74.2695258,40.5427573],[-74.2695183,40.5427548],[-74.2695109,40.5427522],[-74.26946,40.5427323],[-74.26941,40.5427113],[-74.2693885,40.5427017],[-74.2693674,40.5426915],[-74.2693469,40.5426807],[-74.2693268,40.5426694],[-74.2693073,40.5426576],[-74.2692882,40.5426453],[-74.2692698,40.5426325],[-74.2692564,40.5426233],[-74.2692427,40.5426144],[-74.2692285,40.5426059],[-74.269214,40.5425978],[-74.2691991,40.5425901],[-74.2691839,40.5425827],[-74.2691683,40.5425758],[-74.2691524,40.5425693],[-74.2691492,40.5425681],[-74.269146,40.542567],[-74.2691427,40.5425659],[-74.2691394,40.542565],[-74.269136,40.5425642],[-74.2691326,40.5425634],[-74.2691291,40.5425627],[-74.2691257,40.5425622],[-74.2691222,40.5425617],[-74.2691186,40.5425613],[-74.2691151,40.542561],[-74.2691116,40.5425608],[-74.269108,40.5425607],[-74.2691044,40.5425607],[-74.2691009,40.5425608],[-74.2690973,40.5425609],[-74.2690938,40.5425612],[-74.2690903,40.5425616],[-74.2690868,40.5425621],[-74.2690833,40.5425626],[-74.2690799,40.5425633],[-74.2690764,40.542564],[-74.269073,40.5425648],[-74.2690697,40.5425657],[-74.2690664,40.5425668],[-74.2690632,40.5425679],[-74.26906,40.542569],[-74.2690568,40.5425703],[-74.2690537,40.5425717],[-74.2690507,40.5425731],[-74.2690478,40.5425746],[-74.2690449,40.5425762],[-74.2690421,40.5425779],[-74.2690393,40.5425796],[-74.2690367,40.5425814],[-74.2690341,40.5425833],[-74.2690317,40.5425852],[-74.2690293,40.5425872],[-74.2690216,40.5425937],[-74.2690137,40.5426],[-74.2690056,40.5426061],[-74.2689971,40.542612],[-74.2689885,40.5426176],[-74.2689796,40.5426231],[-74.2689705,40.5426283],[-74.2689611,40.5426333],[-74.2689552,40.5426365],[-74.2689495,40.5426398],[-74.2689439,40.5426433],[-74.2689384,40.5426469],[-74.2689332,40.5426507],[-74.2689281,40.5426546],[-74.2689231,40.5426586],[-74.2689184,40.5426628],[-74.2689139,40.5426671],[-74.2689095,40.5426715],[-74.2689054,40.542676],[-74.2689014,40.5426806],[-74.2688977,40.5426854],[-74.2688942,40.5426902],[-74.2688909,40.5426951],[-74.2688878,40.5427001],[-74.268885,40.5427051],[-74.268883,40.5427091],[-74.2688812,40.542713],[-74.2688795,40.5427171],[-74.2688781,40.5427211],[-74.2688768,40.5427252],[-74.2688758,40.5427294],[-74.2688749,40.5427335],[-74.2688742,40.5427377],[-74.2688737,40.5427419],[-74.2688734,40.5427461],[-74.2688733,40.5427503],[-74.2688733,40.5427545],[-74.2688736,40.5427587],[-74.2688741,40.5427629],[-74.2688747,40.5427671],[-74.2688756,40.5427712],[-74.2688766,40.5427754],[-74.2688778,40.5427795],[-74.2688792,40.5427836],[-74.2688984,40.5428327],[-74.2689197,40.5428813],[-74.268943,40.5429293],[-74.2689534,40.5429488],[-74.2689648,40.542968],[-74.2689771,40.5429869],[-74.2689902,40.5430055],[-74.2689922,40.5430084],[-74.2689942,40.5430114],[-74.268996,40.5430144],[-74.2689977,40.5430175],[-74.2689992,40.5430206],[-74.2690006,40.5430237],[-74.2690018,40.5430269],[-74.2690029,40.5430301],[-74.2690038,40.5430334],[-74.2690046,40.5430366],[-74.2690053,40.5430399],[-74.2690058,40.5430432],[-74.2690062,40.5430465],[-74.2690064,40.5430498],[-74.2690064,40.5430532],[-74.2690063,40.5430565],[-74.2690061,40.5430598],[-74.2690057,40.5430631],[-74.2690051,40.5430664],[-74.2690044,40.5430697],[-74.2690036,40.5430729],[-74.2690026,40.5430762],[-74.2690015,40.5430794],[-74.2690002,40.5430825],[-74.2689988,40.5430857],[-74.2689972,40.5430888],[-74.2689955,40.5430918],[-74.2689937,40.5430949],[-74.2689917,40.5430978],[-74.2689896,40.5431007],[-74.2689873,40.5431036],[-74.268985,40.5431064],[-74.2689825,40.5431091],[-74.2689711,40.5431215],[-74.2689603,40.5431341],[-74.2689499,40.543147],[-74.2689401,40.5431601],[-74.2689308,40.5431734],[-74.2689293,40.5431755],[-74.2689278,40.5431775],[-74.2689261,40.5431796],[-74.2689244,40.5431815],[-74.2689226,40.5431834],[-74.2689206,40.5431853],[-74.2689186,40.5431871],[-74.2689165,40.5431889],[-74.2689144,40.5431906],[-74.2689121,40.5431922],[-74.2689098,40.5431938],[-74.2689074,40.5431954],[-74.268905,40.5431968],[-74.2689025,40.5431982],[-74.2688999,40.5431995],[-74.2688972,40.5432008],[-74.2688945,40.543202],[-74.2688918,40.5432031],[-74.268889,40.5432041],[-74.2688862,40.5432051],[-74.2688833,40.543206],[-74.2688804,40.5432068],[-74.2688774,40.5432075],[-74.2688744,40.5432082],[-74.2688714,40.5432087],[-74.2688683,40.5432092],[-74.2688653,40.5432097],[-74.2688622,40.54321],[-74.2688591,40.5432102],[-74.268856,40.5432104],[-74.2688529,40.5432105],[-74.2688498,40.5432105],[-74.2688467,40.5432104],[-74.2688436,40.5432102],[-74.2688405,40.54321],[-74.2688374,40.5432097],[-74.2688343,40.5432092],[-74.2688313,40.5432088],[-74.2688283,40.5432082],[-74.2688253,40.5432075],[-74.2688223,40.5432068],[-74.2687886,40.5431975],[-74.2687554,40.5431873],[-74.2687227,40.5431762],[-74.2686905,40.5431642],[-74.2686588,40.5431514],[-74.2686278,40.5431378],[-74.2686241,40.543136],[-74.2686205,40.5431342],[-74.268617,40.5431323],[-74.2686136,40.5431302],[-74.2686103,40.5431281],[-74.2686071,40.5431259],[-74.2686039,40.5431236],[-74.2686009,40.5431212],[-74.268598,40.5431188],[-74.2685952,40.5431162],[-74.2685926,40.5431136],[-74.26859,40.543111],[-74.2685876,40.5431082],[-74.2685853,40.5431054],[-74.2685831,40.5431026],[-74.2685811,40.5430997],[-74.2685792,40.5430967],[-74.2685774,40.5430937],[-74.2685758,40.5430906],[-74.2685743,40.5430875],[-74.2685729,40.5430844],[-74.2685717,40.5430812],[-74.2685707,40.543078],[-74.2685698,40.5430747],[-74.268569,40.5430715],[-74.2685684,40.5430682],[-74.2685679,40.5430649],[-74.2685676,40.5430616],[-74.2685675,40.5430583],[-74.2685675,40.543055],[-74.2685675,40.5430157],[-74.2685659,40.5429764],[-74.2685627,40.5429371],[-74.2685579,40.542898],[-74.2685516,40.5428589],[-74.2685509,40.5428555],[-74.26855,40.5428522],[-74.268549,40.5428488],[-74.2685479,40.5428455],[-74.2685466,40.5428422],[-74.2685452,40.5428389],[-74.2685436,40.5428357],[-74.2685418,40.5428325],[-74.26854,40.5428294],[-74.268538,40.5428263],[-74.2685358,40.5428233],[-74.2685335,40.5428203],[-74.2685311,40.5428174],[-74.2685286,40.5428145],[-74.2685259,40.5428117],[-74.2685231,40.542809],[-74.2685202,40.5428064],[-74.2685172,40.5428038],[-74.2685141,40.5428014],[-74.2685108,40.542799],[-74.2685075,40.5427966],[-74.2685041,40.5427944],[-74.2684566,40.5427658],[-74.268408,40.5427385],[-74.2683582,40.5427124],[-74.2683074,40.5426875],[-74.2682554,40.542664],[-74.2682025,40.5426418],[-74.2681415,40.5426182],[-74.2680796,40.5425963],[-74.2680167,40.5425759],[-74.2679529,40.5425573],[-74.2679463,40.5425555],[-74.2679395,40.5425539],[-74.2679327,40.5425525],[-74.2679259,40.5425513],[-74.267919,40.5425503],[-74.267912,40.5425494],[-74.2679051,40.5425488],[-74.267898,40.5425483],[-74.267891,40.542548],[-74.267884,40.5425479],[-74.267877,40.542548],[-74.2678699,40.5425482],[-74.2678629,40.5425487],[-74.2678354,40.5425505],[-74.2678078,40.5425519],[-74.2677802,40.5425527],[-74.2677712,40.542553],[-74.2677621,40.5425536],[-74.2677531,40.5425543],[-74.2677442,40.5425553],[-74.2677353,40.5425566],[-74.2677264,40.542558],[-74.2677176,40.5425597],[-74.2677089,40.5425616],[-74.2677003,40.5425637],[-74.2676918,40.5425661],[-74.2676834,40.5425687],[-74.2676751,40.5425715],[-74.2676669,40.5425745],[-74.2676589,40.5425777],[-74.2676261,40.5425919],[-74.2675939,40.542607],[-74.2675625,40.542623],[-74.2675317,40.5426398],[-74.2675018,40.5426573],[-74.2674727,40.5426757],[-74.2674445,40.5426948],[-74.2674171,40.5427147],[-74.2673982,40.5427294],[-74.26738,40.5427446],[-74.2673769,40.5427474],[-74.2673738,40.5427503],[-74.2673709,40.5427532],[-74.2673682,40.5427563],[-74.2673656,40.5427594],[-74.2673631,40.5427625],[-74.2673608,40.5427658],[-74.2673586,40.5427691],[-74.2673565,40.5427724],[-74.2673546,40.5427758],[-74.2673529,40.5427793],[-74.2673513,40.5427828],[-74.2673499,40.5427863],[-74.2673486,40.5427899],[-74.2673475,40.5427935],[-74.2673466,40.5427971],[-74.2673458,40.5428007],[-74.2673452,40.5428044],[-74.2673447,40.5428081],[-74.2673444,40.5428117],[-74.2673443,40.5428154],[-74.2673443,40.5428191],[-74.2673445,40.5428228],[-74.2673449,40.5428265],[-74.2673454,40.5428302],[-74.2673461,40.5428338],[-74.267347,40.5428375],[-74.267348,40.5428411],[-74.2673619,40.5428903],[-74.2673736,40.5429399],[-74.267383,40.5429897],[-74.2673903,40.5430398],[-74.2673953,40.54309],[-74.267398,40.5431403],[-74.267398,40.5431456],[-74.2673979,40.5431508],[-74.2673974,40.5431561],[-74.2673967,40.5431613],[-74.2673958,40.5431665],[-74.2673947,40.5431717],[-74.2673933,40.5431768],[-74.2673917,40.5431819],[-74.2673898,40.543187],[-74.2673878,40.543192],[-74.2673854,40.5431969],[-74.2673829,40.5432018],[-74.2673801,40.5432066],[-74.2673772,40.5432114],[-74.267374,40.543216],[-74.2673706,40.5432206],[-74.267367,40.5432251],[-74.2673632,40.5432294],[-74.2673591,40.5432337],[-74.2673549,40.5432379],[-74.2673506,40.5432419],[-74.267346,40.5432458],[-74.2672784,40.5433038],[-74.2672136,40.5433636],[-74.2672053,40.5433712],[-74.2671968,40.5433786],[-74.2671879,40.5433858],[-74.2671787,40.5433927],[-74.2671691,40.5433994],[-74.2671593,40.5434058],[-74.2671492,40.543412],[-74.2671389,40.5434179],[-74.2671282,40.5434236],[-74.2671174,40.5434289],[-74.2671063,40.543434],[-74.267095,40.5434388],[-74.2670834,40.5434433],[-74.2670717,40.5434475],[-74.2670598,40.5434514],[-74.2670478,40.543455],[-74.2670355,40.5434582],[-74.2670232,40.5434612],[-74.2669108,40.5434878],[-74.2667995,40.543517],[-74.2667935,40.5435186],[-74.2667874,40.54352],[-74.2667812,40.5435213],[-74.266775,40.5435224],[-74.2667688,40.5435233],[-74.2667625,40.543524],[-74.2667562,40.5435246],[-74.2667498,40.543525],[-74.2667435,40.5435253],[-74.2667371,40.5435253],[-74.2667308,40.5435252],[-74.2667244,40.543525],[-74.2667181,40.5435245],[-74.2667118,40.5435239],[-74.2667055,40.5435232],[-74.2666992,40.5435222],[-74.266693,40.5435211],[-74.2666869,40.5435199],[-74.2666808,40.5435184],[-74.2666748,40.5435168],[-74.2666689,40.5435151],[-74.266663,40.5435132],[-74.2666573,40.5435111],[-74.2666516,40.5435089],[-74.266646,40.5435065],[-74.2666406,40.543504],[-74.2666353,40.5435013],[-74.2666301,40.5434985],[-74.266625,40.5434956],[-74.2666201,40.5434925],[-74.2666035,40.5434815],[-74.2665874,40.54347],[-74.2665717,40.5434581],[-74.2665566,40.5434458],[-74.2665421,40.5434332],[-74.2665281,40.5434201],[-74.2665147,40.5434068],[-74.2665018,40.5433931],[-74.2664896,40.5433791],[-74.266478,40.5433648],[-74.2663742,40.5432279],[-74.2662758,40.5430887],[-74.2662695,40.5430799],[-74.2662629,40.5430713],[-74.2662559,40.5430628],[-74.2662486,40.5430545],[-74.2662408,40.5430465],[-74.2662328,40.5430386],[-74.2662244,40.5430309],[-74.2662156,40.5430234],[-74.2662066,40.5430162],[-74.2661972,40.5430092],[-74.2661875,40.5430025],[-74.2661776,40.5429959],[-74.2661712,40.5429921],[-74.2661647,40.5429884],[-74.2661581,40.5429848],[-74.2661512,40.5429815],[-74.2661443,40.5429783],[-74.2661372,40.5429753],[-74.2661299,40.5429725],[-74.2661226,40.5429699],[-74.2661151,40.5429675],[-74.2661075,40.5429653],[-74.2660999,40.5429633],[-74.2660921,40.5429615],[-74.2660843,40.5429599],[-74.2660764,40.5429585],[-74.2660684,40.5429573],[-74.2660604,40.5429563],[-74.2660524,40.5429555],[-74.2660443,40.5429549],[-74.2660362,40.5429546],[-74.2660281,40.5429544],[-74.26602,40.5429545],[-74.2660119,40.5429548],[-74.2660038,40.5429552],[-74.2659957,40.5429559],[-74.2659877,40.5429569],[-74.2659797,40.542958],[-74.2659718,40.5429593],[-74.2658845,40.5429762],[-74.265798,40.5429952],[-74.2657122,40.5430162],[-74.2656274,40.5430392],[-74.2656073,40.5430445],[-74.2655871,40.5430494],[-74.2655667,40.5430537],[-74.265546,40.5430575],[-74.2655253,40.5430608],[-74.2655043,40.5430634],[-74.2654833,40.5430656],[-74.2654622,40.5430672],[-74.265441,40.5430682],[-74.2654198,40.5430687],[-74.2653986,40.5430686],[-74.2653774,40.543068],[-74.2653562,40.5430668],[-74.2652576,40.5430586],[-74.2651593,40.5430479],[-74.2650616,40.5430347],[-74.2649646,40.543019],[-74.2648683,40.5430007],[-74.2647728,40.54298],[-74.264539,40.5429338]]]}}
